{
"type": "FeatureCollection",
"name": "coral_areas",
"crs": { "type": "name", "properties": { "name": "urn:ogc:def:crs:OGC:1.3:CRS84" } },
"features": [
{ "type": "Feature", "properties": { "Area": 11657755 }, "geometry": { "type": "MultiPolygon", "coordinates": [ [ [ [ 79.988281809912124, 6.426670806030479 ], [ 79.988198349, 6.426906869 ], [ 79.988262786, 6.427062432 ], [ 79.988418349, 6.427126869 ], [ 79.988642928, 6.427108264 ], [ 79.988640717, 6.427174152 ], [ 79.988238686, 6.427225858 ], [ 79.987860756, 6.427405521 ], [ 79.987475118, 6.427360605 ], [ 79.987319555, 6.427425042 ], [ 79.987139892, 6.427604705 ], [ 79.987030539, 6.427961218 ], [ 79.986915313, 6.428008947 ], [ 79.986862691, 6.428135988 ], [ 79.98671155, 6.428124173 ], [ 79.986555987, 6.42818861 ], [ 79.986508258, 6.428303836 ], [ 79.986196661, 6.428368273 ], [ 79.986132224, 6.428703499 ], [ 79.986196661, 6.428859063 ], [ 79.986344674, 6.428972994 ], [ 79.985837334, 6.429086925 ], [ 79.985772898, 6.429242488 ], [ 79.985837334, 6.429487884 ], [ 79.986148932, 6.42955232 ], [ 79.986286492, 6.429937041 ], [ 79.986344674, 6.429961141 ], [ 79.986286492, 6.42998524 ], [ 79.986132224, 6.430410298 ], [ 79.986196661, 6.430655693 ], [ 79.986442056, 6.430809961 ], [ 79.986565937, 6.430795858 ], [ 79.986850876, 6.431295033 ], [ 79.986940708, 6.431591689 ], [ 79.986850876, 6.431757771 ], [ 79.986850876, 6.432143409 ], [ 79.986789868, 6.432272091 ], [ 79.986563222, 6.432256424 ], [ 79.986392561, 6.431951015 ], [ 79.986355999, 6.431669503 ], [ 79.986507788, 6.431554009 ], [ 79.986572224, 6.431398445 ], [ 79.986507788, 6.43115305 ], [ 79.986264604, 6.431036908 ], [ 79.986148462, 6.430883556 ], [ 79.985673909, 6.430774203 ], [ 79.985609472, 6.430614061 ], [ 79.985387706, 6.430549624 ], [ 79.985339978, 6.430434398 ], [ 79.985184414, 6.430369961 ], [ 79.984939019, 6.430434398 ], [ 79.984849188, 6.430524229 ], [ 79.984784751, 6.430679793 ], [ 79.984874583, 6.430935707 ], [ 79.984889334, 6.431344227 ], [ 79.984829667, 6.431578108 ], [ 79.984894104, 6.431733672 ], [ 79.985028851, 6.431868419 ], [ 79.985224306, 6.431932856 ], [ 79.985233909, 6.432008661 ], [ 79.985188993, 6.432166592 ], [ 79.984894104, 6.432275944 ], [ 79.984784751, 6.432566255 ], [ 79.984829667, 6.432764523 ], [ 79.984784751, 6.433105244 ], [ 79.984874583, 6.433334402 ], [ 79.984555594, 6.433334402 ], [ 79.98440003, 6.433398838 ], [ 79.984245762, 6.433644233 ], [ 79.984310198, 6.43397946 ], [ 79.984515257, 6.434043896 ], [ 79.984576566, 6.434421067 ], [ 79.984310198, 6.434476817 ], [ 79.984245762, 6.43463238 ], [ 79.984245762, 6.434812043 ], [ 79.984425425, 6.435067957 ], [ 79.984425425, 6.435261201 ], [ 79.984503127, 6.435422259 ], [ 79.98440003, 6.435464964 ], [ 79.984335594, 6.435620527 ], [ 79.984335594, 6.435907395 ], [ 79.984016604, 6.435849685 ], [ 79.983823361, 6.435939516 ], [ 79.983657278, 6.435849685 ], [ 79.983387784, 6.435849685 ], [ 79.983208121, 6.435972303 ], [ 79.983004358, 6.435464964 ], [ 79.982914526, 6.435375132 ], [ 79.982688967, 6.435310695 ], [ 79.982709468, 6.435081538 ], [ 79.982645032, 6.434925974 ], [ 79.982489468, 6.434861538 ], [ 79.982080648, 6.434861538 ], [ 79.982016211, 6.43465648 ], [ 79.981794445, 6.434592043 ], [ 79.981746717, 6.434476817 ], [ 79.981591153, 6.43441238 ], [ 79.980806769, 6.434566648 ], [ 79.980744229, 6.434816622 ], [ 79.980629317, 6.434861538 ], [ 79.98018016, 6.434951369 ], [ 79.979659775, 6.434906454 ], [ 79.979504212, 6.43497089 ], [ 79.979260558, 6.43526578 ], [ 79.979231434, 6.435195469 ], [ 79.979009668, 6.435131032 ], [ 79.978961939, 6.435015806 ], [ 79.978806376, 6.434951369 ], [ 79.978577218, 6.434971871 ], [ 79.978512782, 6.43465648 ], [ 79.978307724, 6.43451892 ], [ 79.978307724, 6.434362886 ], [ 79.978153456, 6.43411749 ], [ 79.97790806, 6.434053054 ], [ 79.977483002, 6.434207322 ], [ 79.977457339, 6.434269279 ], [ 79.977229745, 6.434232717 ], [ 79.977139914, 6.433823896 ], [ 79.97694073, 6.43348867 ], [ 79.97611143, 6.433154739 ], [ 79.975648692, 6.433154739 ], [ 79.975548341, 6.433039512 ], [ 79.975302946, 6.432975076 ], [ 79.975057551, 6.433129344 ], [ 79.974993115, 6.433284907 ], [ 79.975057551, 6.433620134 ], [ 79.975184592, 6.433672756 ], [ 79.975299171, 6.43382546 ], [ 79.975127862, 6.434144782 ], [ 79.974877888, 6.434207322 ], [ 79.97472362, 6.434722212 ], [ 79.974788056, 6.434967607 ], [ 79.975082946, 6.435131032 ], [ 79.974877888, 6.435195469 ], [ 79.974835184, 6.435298566 ], [ 79.974584294, 6.435131032 ], [ 79.974338899, 6.435195469 ], [ 79.974274462, 6.435351032 ], [ 79.974274462, 6.435723939 ], [ 79.973955473, 6.435886894 ], [ 79.97377581, 6.435849685 ], [ 79.973620247, 6.435914121 ], [ 79.97355581, 6.436225719 ], [ 79.973489197, 6.436253311 ], [ 79.973591568, 6.435665443 ], [ 79.973482216, 6.435420048 ], [ 79.973146989, 6.435175948 ], [ 79.972542268, 6.435375132 ], [ 79.972343084, 6.435670022 ], [ 79.972182942, 6.435734458 ], [ 79.97201094, 6.435959147 ], [ 79.97195508, 6.43582429 ], [ 79.971799516, 6.435759853 ], [ 79.971350359, 6.435759853 ], [ 79.971194795, 6.43582429 ], [ 79.970950696, 6.436608674 ], [ 79.971015132, 6.436764237 ], [ 79.971350359, 6.436918505 ], [ 79.971955551, 6.436918505 ], [ 79.971733784, 6.4369921 ], [ 79.971669348, 6.437147663 ], [ 79.971704346, 6.437411818 ], [ 79.971246947, 6.437376821 ], [ 79.970991033, 6.437286989 ], [ 79.970835469, 6.437351426 ], [ 79.970697909, 6.437556484 ], [ 79.970541875, 6.437556484 ], [ 79.969892238, 6.437800583 ], [ 79.969712575, 6.437890415 ], [ 79.969577828, 6.438070078 ], [ 79.969513391, 6.438225641 ], [ 79.969513391, 6.438495136 ], [ 79.969577828, 6.438650699 ], [ 79.969847322, 6.439010026 ], [ 79.970002886, 6.439074462 ], [ 79.970227465, 6.439074462 ], [ 79.97047286, 6.43896511 ], [ 79.970707958, 6.438535473 ], [ 79.970809806, 6.438498911 ], [ 79.970984968, 6.438622792 ], [ 79.971087039, 6.438832004 ], [ 79.971040527, 6.439168872 ], [ 79.971108927, 6.439326078 ], [ 79.971040527, 6.439573114 ], [ 79.971104964, 6.439728678 ], [ 79.971208061, 6.439771382 ], [ 79.971015132, 6.43995654 ], [ 79.970950696, 6.440112103 ], [ 79.970950696, 6.440395178 ], [ 79.970745638, 6.440495529 ], [ 79.970681201, 6.440651093 ], [ 79.970737015, 6.440965503 ], [ 79.970681201, 6.441383325 ], [ 79.970626682, 6.441464155 ], [ 79.970317296, 6.441464155 ], [ 79.969892238, 6.441663339 ], [ 79.969757491, 6.441798086 ], [ 79.969697856, 6.442010157 ], [ 79.96942356, 6.442447723 ], [ 79.969577828, 6.442962613 ], [ 79.969746972, 6.443027049 ], [ 79.969819448, 6.443164812 ], [ 79.969667659, 6.443280306 ], [ 79.969603223, 6.44343587 ], [ 79.969603223, 6.443560589 ], [ 79.969603223, 6.443615533 ], [ 79.969725841, 6.443795196 ], [ 79.96964356, 6.443877477 ], [ 79.96961946, 6.443819296 ], [ 79.969374065, 6.443754859 ], [ 79.969118151, 6.443934522 ], [ 79.968924908, 6.443934522 ], [ 79.968758825, 6.444024354 ], [ 79.968296087, 6.443934522 ], [ 79.96796086, 6.44408879 ], [ 79.967896424, 6.444244354 ], [ 79.96796086, 6.44457958 ], [ 79.968140523, 6.444759243 ], [ 79.96857016, 6.44496803 ], [ 79.96863856, 6.445165127 ], [ 79.968410018, 6.445391347 ], [ 79.968335978, 6.44555149 ], [ 79.968140523, 6.445615926 ], [ 79.968076087, 6.44577149 ], [ 79.967986255, 6.446130816 ], [ 79.968050692, 6.446286379 ], [ 79.968153789, 6.446329084 ], [ 79.968050692, 6.44642441 ], [ 79.967986255, 6.446669805 ], [ 79.968112649, 6.446851032 ], [ 79.967871029, 6.446963399 ], [ 79.967806592, 6.447208794 ], [ 79.967871029, 6.447364358 ], [ 79.968087901, 6.447506811 ], [ 79.968140523, 6.447633852 ], [ 79.96839751, 6.447693487 ], [ 79.96849985, 6.447903347 ], [ 79.968668994, 6.447967783 ], [ 79.968769344, 6.44808301 ], [ 79.969030216, 6.448152025 ], [ 79.968794739, 6.448749511 ], [ 79.968589681, 6.448849861 ], [ 79.968525244, 6.449005425 ], [ 79.968589681, 6.44925082 ], [ 79.969284234, 6.449494919 ], [ 79.969553728, 6.449494919 ], [ 79.96995797, 6.449259442 ], [ 79.970194141, 6.449310455 ], [ 79.97029648, 6.44987964 ], [ 79.970541875, 6.449944077 ], [ 79.970697439, 6.44987964 ], [ 79.970745167, 6.449764414 ], [ 79.97115086, 6.449764414 ], [ 79.971130359, 6.44990374 ], [ 79.971276004, 6.450128319 ], [ 79.97122019, 6.450352898 ], [ 79.97146429, 6.450777956 ], [ 79.971709685, 6.450842392 ], [ 79.971865248, 6.450777956 ], [ 79.971939278, 6.450623443 ], [ 79.972003279, 6.450777956 ], [ 79.972967326, 6.451201718 ], [ 79.97307813, 6.451193031 ], [ 79.972532485, 6.451478594 ], [ 79.972248674, 6.451300708 ], [ 79.971913448, 6.451365144 ], [ 79.971860826, 6.451492185 ], [ 79.971733784, 6.451544807 ], [ 79.971669348, 6.451766573 ], [ 79.971374458, 6.451993965 ], [ 79.971310022, 6.452149528 ], [ 79.971310022, 6.453047844 ], [ 79.971399854, 6.453222482 ], [ 79.971284627, 6.453296522 ], [ 79.971232005, 6.45355831 ], [ 79.970901201, 6.453591412 ], [ 79.970655806, 6.453700764 ], [ 79.97059137, 6.453926323 ], [ 79.970452044, 6.453905822 ], [ 79.97029648, 6.453970258 ], [ 79.970149225, 6.454198723 ], [ 79.970002886, 6.454175316 ], [ 79.969836804, 6.454265148 ], [ 79.969759624, 6.454249703 ], [ 79.969773728, 6.45403599 ], [ 79.969709292, 6.453880427 ], [ 79.969553728, 6.45381599 ], [ 79.969218502, 6.453880427 ], [ 79.969064234, 6.454215653 ], [ 79.969069035, 6.454406908 ], [ 79.968974402, 6.454624474 ], [ 79.968679513, 6.45468891 ], [ 79.968615076, 6.454934306 ], [ 79.968732167, 6.45513799 ], [ 79.968704908, 6.455293632 ], [ 79.968949007, 6.455898353 ], [ 79.969104571, 6.455962789 ], [ 79.969333728, 6.455946081 ], [ 79.969398165, 6.456257679 ], [ 79.969603223, 6.456447861 ], [ 79.969667659, 6.456706837 ], [ 79.9701114, 6.457217271 ], [ 79.97005238, 6.457449588 ], [ 79.970116817, 6.457605152 ], [ 79.970321875, 6.457669588 ], [ 79.970386312, 6.457874646 ], [ 79.970645287, 6.457939083 ], [ 79.970701702, 6.458038072 ], [ 79.970452044, 6.457948241 ], [ 79.970092718, 6.457948241 ], [ 79.969926635, 6.458038072 ], [ 79.96964356, 6.458038072 ], [ 79.969374065, 6.458165113 ], [ 79.968835076, 6.458127904 ], [ 79.968679513, 6.45819234 ], [ 79.968525244, 6.458675895 ], [ 79.968320186, 6.458821161 ], [ 79.96825575, 6.458976724 ], [ 79.968320186, 6.459222119 ], [ 79.968525244, 6.459341074 ], [ 79.96867032, 6.459686074 ], [ 79.968277482, 6.459834703 ], [ 79.968026592, 6.459834703 ], [ 79.967871029, 6.459899139 ], [ 79.967685871, 6.460092068 ], [ 79.967463504, 6.459809308 ], [ 79.96730794, 6.459744871 ], [ 79.967161601, 6.459768277 ], [ 79.967104178, 6.459629645 ], [ 79.966948614, 6.459565208 ], [ 79.966589288, 6.459565208 ], [ 79.966433724, 6.459629645 ], [ 79.966369288, 6.459785208 ], [ 79.966369288, 6.459964871 ], [ 79.966527519, 6.460301739 ], [ 79.966490154, 6.46038402 ], [ 79.966319793, 6.46028386 ], [ 79.966050299, 6.46028386 ], [ 79.965894735, 6.460348297 ], [ 79.965830299, 6.46050386 ], [ 79.965830299, 6.460773355 ], [ 79.965924932, 6.460941426 ], [ 79.965984567, 6.461288244 ], [ 79.966136355, 6.461403739 ], [ 79.966099793, 6.461581839 ], [ 79.966279456, 6.461837753 ], [ 79.966343893, 6.46218656 ], [ 79.966696493, 6.462250996 ], [ 79.966388809, 6.462504254 ], [ 79.966279456, 6.462749648 ], [ 79.966279456, 6.462974227 ], [ 79.966441463, 6.463312659 ], [ 79.966414204, 6.46369288 ], [ 79.966523556, 6.463938275 ], [ 79.966694027, 6.464087819 ], [ 79.96636013, 6.464204327 ], [ 79.96636013, 6.463782711 ], [ 79.966250778, 6.463582232 ], [ 79.966095214, 6.463517795 ], [ 79.965426817, 6.463552793 ], [ 79.965461815, 6.463378469 ], [ 79.965397378, 6.463222906 ], [ 79.96497232, 6.463068638 ], [ 79.964726925, 6.463133074 ], [ 79.964662489, 6.463288638 ], [ 79.96468299, 6.463697458 ], [ 79.964277768, 6.463851726 ], [ 79.964213331, 6.464052206 ], [ 79.964367599, 6.464342516 ], [ 79.96475232, 6.464480076 ], [ 79.964662489, 6.464725942 ], [ 79.964662489, 6.464995437 ], [ 79.964726925, 6.465151 ], [ 79.964943798, 6.465293454 ], [ 79.965172955, 6.465772271 ], [ 79.964906588, 6.46582802 ], [ 79.964842152, 6.466049786 ], [ 79.964716406, 6.46612291 ], [ 79.964523163, 6.466033078 ], [ 79.964074005, 6.466033078 ], [ 79.963918442, 6.466097515 ], [ 79.963854005, 6.466253078 ], [ 79.963890567, 6.466431178 ], [ 79.963764174, 6.466612404 ], [ 79.963854005, 6.467127765 ], [ 79.963738778, 6.467175493 ], [ 79.963674342, 6.467331056 ], [ 79.963738778, 6.467576452 ], [ 79.963800735, 6.467602115 ], [ 79.963784675, 6.467829709 ], [ 79.963469284, 6.467894145 ], [ 79.963225184, 6.468229372 ], [ 79.963289621, 6.468564598 ], [ 79.963532804, 6.468770572 ], [ 79.963648947, 6.469013756 ], [ 79.963800735, 6.469126123 ], [ 79.963674342, 6.46930735 ], [ 79.963674342, 6.469643047 ], [ 79.963559116, 6.469690776 ], [ 79.963494679, 6.469846339 ], [ 79.963572381, 6.470097229 ], [ 79.963379452, 6.470229765 ], [ 79.963315016, 6.470385328 ], [ 79.963376325, 6.470623173 ], [ 79.96328915, 6.470614486 ], [ 79.963241422, 6.47049926 ], [ 79.963085858, 6.470434823 ], [ 79.962840463, 6.47049926 ], [ 79.962816364, 6.470557441 ], [ 79.962587206, 6.470219246 ], [ 79.962497374, 6.469949751 ], [ 79.962497374, 6.469576845 ], [ 79.96222788, 6.468871773 ], [ 79.96222788, 6.468678529 ], [ 79.961868554, 6.468063289 ], [ 79.961688891, 6.467420888 ], [ 79.961534623, 6.467175493 ], [ 79.961379059, 6.467111056 ], [ 79.961133664, 6.467175493 ], [ 79.960709902, 6.468049709 ], [ 79.960709902, 6.468332784 ], [ 79.96062007, 6.468498866 ], [ 79.96062007, 6.468871773 ], [ 79.960530238, 6.469037856 ], [ 79.960530238, 6.469397182 ], [ 79.960889565, 6.470192085 ], [ 79.960889565, 6.470385328 ], [ 79.961069228, 6.470731074 ], [ 79.961069228, 6.470924318 ], [ 79.961313327, 6.471439207 ], [ 79.961428554, 6.471539558 ], [ 79.96203198, 6.472607017 ], [ 79.962237038, 6.472707368 ], [ 79.962326869, 6.472887031 ], [ 79.962326869, 6.473259937 ], [ 79.962391306, 6.473415501 ], [ 79.96269801, 6.473647786 ], [ 79.962861972, 6.474117916 ], [ 79.962930295, 6.474313816 ], [ 79.963020126, 6.474493479 ], [ 79.963147167, 6.474546101 ], [ 79.963289621, 6.474942637 ], [ 79.963648947, 6.475571458 ], [ 79.963764174, 6.475671808 ], [ 79.96382861, 6.475840952 ], [ 79.964277768, 6.47629011 ], [ 79.96497232, 6.476624041 ], [ 79.965217715, 6.476559604 ], [ 79.965282152, 6.476224378 ], [ 79.965217715, 6.476068814 ], [ 79.965012657, 6.475968464 ], [ 79.96500397, 6.475484754 ], [ 79.965331646, 6.475546062 ], [ 79.96548721, 6.475481626 ], [ 79.965534938, 6.4753664 ], [ 79.965846536, 6.475301963 ], [ 79.966000804, 6.475056568 ], [ 79.965964242, 6.474878469 ], [ 79.966090636, 6.474697242 ], [ 79.966090636, 6.474557916 ], [ 79.966430912, 6.474557916 ], [ 79.966568472, 6.474852805 ], [ 79.966758598, 6.47498418 ], [ 79.966728614, 6.4751464 ], [ 79.966928959, 6.475600571 ], [ 79.96614013, 6.47555522 ], [ 79.965894735, 6.475709488 ], [ 79.965830299, 6.476044715 ], [ 79.96616423, 6.476559604 ], [ 79.966369288, 6.476659955 ], [ 79.966369288, 6.477122693 ], [ 79.96644699, 6.477283751 ], [ 79.966343893, 6.477326456 ], [ 79.966279456, 6.477482019 ], [ 79.966343893, 6.477817246 ], [ 79.966679119, 6.477881682 ], [ 79.966962194, 6.477791851 ], [ 79.967090452, 6.477866015 ], [ 79.967152377, 6.478176572 ], [ 79.967279418, 6.478229194 ], [ 79.967511703, 6.47862573 ], [ 79.967582014, 6.478654853 ], [ 79.967650336, 6.478975831 ], [ 79.967511703, 6.479033255 ], [ 79.967357435, 6.479368481 ], [ 79.967403299, 6.479793617 ], [ 79.967285482, 6.479845702 ], [ 79.967038446, 6.479777302 ], [ 79.966854204, 6.479910974 ], [ 79.966610104, 6.479347665 ], [ 79.966332871, 6.479164797 ], [ 79.966449962, 6.478829492 ], [ 79.966449962, 6.478456585 ], [ 79.966539793, 6.478290503 ], [ 79.966475357, 6.478045108 ], [ 79.966385525, 6.477865445 ], [ 79.966078821, 6.477812823 ], [ 79.965756704, 6.477416287 ], [ 79.965601141, 6.477351851 ], [ 79.965331646, 6.477351851 ], [ 79.965176083, 6.477416287 ], [ 79.965111646, 6.477666261 ], [ 79.964726925, 6.477775613 ], [ 79.96465791, 6.477856822 ], [ 79.9643435, 6.477801008 ], [ 79.964187936, 6.477865445 ], [ 79.964008273, 6.477955276 ], [ 79.963943837, 6.47811084 ], [ 79.963943837, 6.478380334 ], [ 79.964091379, 6.478609492 ], [ 79.963918442, 6.478673929 ], [ 79.963854005, 6.478829492 ], [ 79.963854005, 6.479098987 ], [ 79.963918442, 6.47925455 ], [ 79.964021539, 6.479297254 ], [ 79.963943837, 6.479458313 ], [ 79.964008273, 6.479703708 ], [ 79.9643435, 6.479947807 ], [ 79.964792657, 6.479947807 ], [ 79.964927405, 6.479891993 ], [ 79.965151983, 6.480037639 ], [ 79.965371538, 6.480037639 ], [ 79.965485724, 6.480231183 ], [ 79.965475774, 6.48036822 ], [ 79.965371983, 6.480463833 ], [ 79.965307547, 6.480290896 ], [ 79.965151983, 6.48022646 ], [ 79.964973884, 6.480263021 ], [ 79.964792657, 6.480136628 ], [ 79.964523163, 6.480136628 ], [ 79.964367599, 6.480201065 ], [ 79.964272273, 6.480483825 ], [ 79.964229569, 6.480380728 ], [ 79.963984174, 6.480316291 ], [ 79.9635142, 6.480650222 ], [ 79.963449763, 6.480805786 ], [ 79.9635142, 6.481051181 ], [ 79.96369105, 6.481115617 ], [ 79.96382861, 6.481410507 ], [ 79.963943837, 6.481510857 ], [ 79.964008273, 6.481769833 ], [ 79.964355091, 6.481829468 ], [ 79.96453864, 6.482018511 ], [ 79.964392994, 6.482260464 ], [ 79.963984174, 6.482202753 ], [ 79.963648947, 6.482357021 ], [ 79.963494679, 6.482602416 ], [ 79.963494679, 6.482782079 ], [ 79.963559116, 6.482937643 ], [ 79.963686156, 6.482990265 ], [ 79.96382861, 6.483296969 ], [ 79.963981962, 6.483413112 ], [ 79.964053189, 6.483656295 ], [ 79.9643435, 6.483720732 ], [ 79.964524726, 6.483594338 ], [ 79.964806238, 6.4836309 ], [ 79.964906588, 6.483746127 ], [ 79.965075732, 6.483810563 ], [ 79.965038523, 6.483909552 ], [ 79.964816757, 6.483973989 ], [ 79.964764135, 6.48410103 ], [ 79.964637094, 6.484153652 ], [ 79.964572657, 6.484488878 ], [ 79.964726925, 6.484734273 ], [ 79.965075732, 6.48479871 ], [ 79.965327871, 6.4849396 ], [ 79.96529131, 6.485266027 ], [ 79.965219357, 6.485325425 ], [ 79.965062152, 6.485257025 ], [ 79.964816757, 6.485321462 ], [ 79.96475232, 6.485477025 ], [ 79.96475232, 6.485906347 ], [ 79.964523163, 6.485885846 ], [ 79.964367599, 6.485950282 ], [ 79.964303163, 6.48615534 ], [ 79.964098105, 6.486219777 ], [ 79.964033668, 6.486424835 ], [ 79.963559116, 6.486579103 ], [ 79.963516411, 6.4866822 ], [ 79.963265521, 6.486604498 ], [ 79.963007618, 6.486788963 ], [ 79.962750632, 6.486848598 ], [ 79.962686195, 6.487004161 ], [ 79.962686195, 6.487363487 ], [ 79.962840463, 6.487788545 ], [ 79.963147167, 6.487841168 ], [ 79.963199789, 6.487968208 ], [ 79.963355353, 6.488032645 ], [ 79.963984174, 6.488032645 ], [ 79.964213331, 6.487885103 ], [ 79.964213331, 6.488171971 ], [ 79.964364472, 6.488409816 ], [ 79.964098105, 6.488465565 ], [ 79.963854005, 6.488980455 ], [ 79.963854005, 6.489205034 ], [ 79.963918442, 6.489360597 ], [ 79.96406794, 6.489422522 ], [ 79.964187936, 6.489675008 ], [ 79.964314977, 6.48972763 ], [ 79.964303163, 6.490327928 ], [ 79.964605444, 6.490866917 ], [ 79.964482826, 6.49104658 ], [ 79.964482826, 6.491185906 ], [ 79.964277768, 6.491250343 ], [ 79.9641235, 6.491495738 ], [ 79.964187936, 6.491741133 ], [ 79.964303163, 6.491788861 ], [ 79.964303163, 6.491958476 ], [ 79.964213331, 6.492124558 ], [ 79.964233832, 6.492353716 ], [ 79.964029089, 6.492353716 ], [ 79.963738778, 6.4925529 ], [ 79.963629426, 6.492798295 ], [ 79.963674342, 6.493242428 ], [ 79.963546608, 6.493346664 ], [ 79.963220606, 6.493450299 ], [ 79.963085858, 6.493431694 ], [ 79.962750632, 6.493585962 ], [ 79.962615884, 6.49372071 ], [ 79.962506532, 6.493966105 ], [ 79.962586446, 6.494185345 ], [ 79.962412122, 6.494105431 ], [ 79.962097711, 6.494105431 ], [ 79.961762485, 6.494304615 ], [ 79.961653133, 6.49455001 ], [ 79.961653133, 6.494774588 ], [ 79.961852316, 6.495199646 ], [ 79.962076895, 6.495424225 ], [ 79.962457038, 6.495623409 ], [ 79.962591785, 6.495623409 ], [ 79.962927011, 6.495469141 ], [ 79.962991448, 6.495313578 ], [ 79.963036364, 6.494819504 ], [ 79.962799245, 6.494366383 ], [ 79.963020126, 6.494615742 ], [ 79.96317569, 6.494680178 ], [ 79.963466471, 6.494680178 ], [ 79.963539595, 6.494883024 ], [ 79.963494679, 6.495088999 ], [ 79.963539595, 6.495493241 ], [ 79.963604031, 6.495648804 ], [ 79.963873636, 6.495865722 ], [ 79.963665184, 6.496004688 ], [ 79.963600748, 6.495831751 ], [ 79.963445184, 6.495767314 ], [ 79.963199789, 6.495831751 ], [ 79.963045521, 6.496180558 ], [ 79.962840463, 6.49637074 ], [ 79.962776027, 6.496526303 ], [ 79.962840463, 6.496771698 ], [ 79.962996027, 6.496836135 ], [ 79.963282895, 6.496836135 ], [ 79.963187282, 6.496939925 ], [ 79.962840463, 6.497044476 ], [ 79.962526053, 6.497313971 ], [ 79.962416701, 6.497604282 ], [ 79.962416701, 6.497918692 ], [ 79.9624851, 6.498075897 ], [ 79.962338684, 6.498294411 ], [ 79.962097711, 6.498282597 ], [ 79.961918048, 6.498405215 ], [ 79.961714286, 6.49816737 ], [ 79.961416158, 6.498061256 ], [ 79.96135496, 6.497808044 ], [ 79.9611294, 6.497743608 ], [ 79.961149902, 6.497604282 ], [ 79.960995634, 6.497358886 ], [ 79.96084007, 6.49729445 ], [ 79.960570576, 6.49729445 ], [ 79.960415012, 6.497358886 ], [ 79.960355377, 6.497615873 ], [ 79.960235349, 6.497718213 ], [ 79.960170912, 6.497939979 ], [ 79.960055686, 6.497987707 ], [ 79.959991249, 6.498322934 ], [ 79.960055686, 6.498478497 ], [ 79.960155981, 6.498520041 ], [ 79.960115353, 6.498644435 ], [ 79.959965854, 6.49870636 ], [ 79.959901418, 6.498879297 ], [ 79.959667681, 6.498823483 ], [ 79.959622766, 6.498483992 ], [ 79.959667681, 6.498188186 ], [ 79.959513413, 6.497808044 ], [ 79.95933375, 6.497628381 ], [ 79.959088355, 6.497519029 ], [ 79.958549366, 6.497519029 ], [ 79.95821414, 6.497673297 ], [ 79.957944645, 6.497942792 ], [ 79.957745461, 6.498547513 ], [ 79.957809898, 6.498837823 ], [ 79.958145124, 6.498992091 ], [ 79.959178187, 6.499261586 ], [ 79.95945226, 6.499151253 ], [ 79.959516697, 6.499331897 ], [ 79.960031586, 6.499531081 ], [ 79.961199396, 6.499890407 ], [ 79.961563736, 6.499914641 ], [ 79.961783301, 6.50007007 ], [ 79.975046282424529, 6.504173304142883 ], [ 79.975168462927002, 6.503312728429792 ], [ 79.976610648877781, 6.502411362210563 ], [ 79.977331741853163, 6.501329722747488 ], [ 79.978293199153669, 6.498926079496209 ], [ 79.979254656454188, 6.497483893545442 ], [ 79.979855567267009, 6.496282071919802 ], [ 79.980576660242392, 6.4949600681316 ], [ 79.980696842404953, 6.493878428668524 ], [ 79.981177571055213, 6.492436242717757 ], [ 79.981990816, 6.490606441591958 ], [ 79.981990816, 6.49053122 ], [ 79.982031791212364, 6.490514247364153 ], [ 79.982139028355718, 6.490272963791607 ], [ 79.982170479, 6.489927006704451 ], [ 79.982170479, 6.489739444 ], [ 79.982188031573003, 6.489733928401518 ], [ 79.982259210518279, 6.488950960003403 ], [ 79.982619757005978, 6.487148227564944 ], [ 79.982619757005978, 6.486066588101869 ], [ 79.982619757005978, 6.480898755111619 ], [ 79.982619757005978, 6.4802978442988 ], [ 79.982499574843416, 6.478855658348033 ], [ 79.981417935380335, 6.478014383210086 ], [ 79.979134474291612, 6.477293290234702 ], [ 79.97793265266597, 6.475250193471115 ], [ 79.975976900670418, 6.474117916 ], [ 79.975649191577261, 6.473928189682912 ], [ 79.974807916439318, 6.472846550219836 ], [ 79.974086823463935, 6.471885092919325 ], [ 79.973365730488538, 6.471043817781378 ], [ 79.973005184000854, 6.47080345345625 ], [ 79.972885001838293, 6.470442906968557 ], [ 79.973245548325977, 6.469000721017791 ], [ 79.973726276976237, 6.468159445879843 ], [ 79.973846459138798, 6.46743835290446 ], [ 79.973726276976237, 6.466116349116256 ], [ 79.9737024304263, 6.465854037066907 ], [ 79.973606094813675, 6.464794345328053 ], [ 79.973365730488538, 6.463712705864978 ], [ 79.973005184000854, 6.462030155589082 ], [ 79.973005184000854, 6.461239813808149 ], [ 79.973005184000854, 6.460467787475752 ], [ 79.973485912651114, 6.459386148012676 ], [ 79.973966641301359, 6.459025601524985 ], [ 79.974513851947535, 6.458417589695904 ], [ 79.974513851947535, 6.458417589695907 ], [ 79.974657140190573, 6.458258380536981 ], [ 79.97504828076444, 6.457823779899345 ], [ 79.975649191577261, 6.456862322598834 ], [ 79.976129920227521, 6.455179772322939 ], [ 79.976250102390082, 6.454458679347555 ], [ 79.976250102390082, 6.453920106366187 ], [ 79.976250102390082, 6.452655946909096 ], [ 79.976851013202904, 6.451213760958329 ], [ 79.978773927803928, 6.44941102851987 ], [ 79.978533563478805, 6.44881011770705 ], [ 79.979735385104433, 6.447367931756284 ], [ 79.981297753217774, 6.447007385268591 ], [ 79.982499574843402, 6.445805563642952 ], [ 79.983581214306483, 6.444723924179877 ], [ 79.984903218094686, 6.443642284716802 ], [ 79.984984913811488, 6.443560589 ], [ 79.985504128907507, 6.443041373903982 ], [ 79.98574449323263, 6.441479005790651 ], [ 79.986105039720329, 6.440277184165011 ], [ 79.986585768370588, 6.439075362539373 ], [ 79.987066497020834, 6.438714816051681 ], [ 79.987787589996216, 6.437633176588605 ], [ 79.988869229459297, 6.436190990637838 ], [ 79.989470140272118, 6.434989169012199 ], [ 79.990311415410062, 6.434388258199379 ], [ 79.991032508385445, 6.432705707923484 ], [ 79.991873783523388, 6.431383704135281 ], [ 79.992114147848525, 6.430662611159898 ], [ 79.992474694336209, 6.429100243046567 ], [ 79.992894747082033, 6.427672063710768 ], [ 79.988281809912124, 6.426670806030479 ] ], [ [ 79.966980264, 6.461650698 ], [ 79.966985979, 6.461653066 ], [ 79.966981938, 6.46165474 ], [ 79.966980264, 6.461650698 ] ], [ [ 79.966768951, 6.464856111 ], [ 79.96694705, 6.464819549 ], [ 79.966972714, 6.464881506 ], [ 79.967196376, 6.464950521 ], [ 79.967062545, 6.465109368 ], [ 79.966998109, 6.465314426 ], [ 79.96679305, 6.465378862 ], [ 79.966728614, 6.465600629 ], [ 79.966343893, 6.465738188 ], [ 79.966301188, 6.465841286 ], [ 79.96614013, 6.465763584 ], [ 79.96576343, 6.465763584 ], [ 79.965821141, 6.465444594 ], [ 79.965899158, 6.465293454 ], [ 79.966116031, 6.465151 ], [ 79.966327532, 6.464572512 ], [ 79.966613387, 6.464791674 ], [ 79.966768951, 6.464856111 ] ], [ [ 79.965310674, 6.465835571 ], [ 79.965331646, 6.465844257 ], [ 79.96534902, 6.465844257 ], [ 79.965320055, 6.465858217 ], [ 79.965310674, 6.465835571 ] ], [ [ 79.965371983, 6.469308581 ], [ 79.965539774407787, 6.469329151083052 ], [ 79.965539327336344, 6.469549197746547 ], [ 79.965423042, 6.46957307 ], [ 79.965367182, 6.469498605 ], [ 79.965371983, 6.469308581 ] ], [ [ 79.967218109, 6.469626339 ], [ 79.96729436, 6.46952735 ], [ 79.967447266, 6.469469639 ], [ 79.967447266, 6.46968405 ], [ 79.967218109, 6.469626339 ] ], [ [ 79.96519232, 6.471553138 ], [ 79.965127884, 6.471307743 ], [ 79.964858389, 6.470948417 ], [ 79.964653331, 6.470848067 ], [ 79.964653331, 6.470551411 ], [ 79.96497232, 6.470213216 ], [ 79.965151983, 6.470335834 ], [ 79.965266450578852, 6.470335834 ], [ 79.965265666577295, 6.470721088407573 ], [ 79.96553694077727, 6.470721639691988 ], [ 79.965535837309119, 6.471264321191541 ], [ 79.965807112408356, 6.471264873375277 ], [ 79.965806571299439, 6.471530772008978 ], [ 79.965780804, 6.471512801 ], [ 79.965601141, 6.471512801 ], [ 79.965445578, 6.471577238 ], [ 79.965397849, 6.471692464 ], [ 79.965086251, 6.471756901 ], [ 79.965021815, 6.472105708 ], [ 79.964951348, 6.472150309 ], [ 79.965012657, 6.472002296 ], [ 79.964954947, 6.471773138 ], [ 79.965127884, 6.471708702 ], [ 79.96519232, 6.471553138 ] ], [ [ 79.963036364, 6.471323981 ], [ 79.963045521, 6.471323981 ], [ 79.963045521, 6.47135364 ], [ 79.963036364, 6.471349846 ], [ 79.963036364, 6.471323981 ] ], [ [ 79.965814397200901, 6.471536230064294 ], [ 79.966349110423138, 6.471537317593174 ], [ 79.966348952924633, 6.471614711437835 ], [ 79.966319793, 6.471602633 ], [ 79.965962031, 6.471639195 ], [ 79.965814397200901, 6.471536230064294 ] ], [ [ 79.964253668, 6.472312128 ], [ 79.964478247, 6.472166482 ], [ 79.964813629, 6.472213609 ], [ 79.964277768, 6.472520469 ], [ 79.964213331, 6.472900611 ], [ 79.964277768, 6.473056175 ], [ 79.964392994, 6.473103903 ], [ 79.96435708, 6.4732196 ], [ 79.964114342, 6.4732196 ], [ 79.964049906, 6.473014542 ], [ 79.963844847, 6.472734529 ], [ 79.963690579, 6.472116227 ], [ 79.96346502, 6.471773138 ], [ 79.963601219, 6.471773138 ], [ 79.963648947, 6.471888365 ], [ 79.963854005, 6.472025925 ], [ 79.963854005, 6.472092128 ], [ 79.963918442, 6.472247691 ], [ 79.964074005, 6.472312128 ], [ 79.964253668, 6.472312128 ] ], [ [ 79.964812493, 6.475007073 ], [ 79.964862653, 6.475007073 ], [ 79.964842152, 6.475073942 ], [ 79.964832994, 6.475056568 ], [ 79.964812493, 6.475007073 ] ], [ [ 79.967601534, 6.477146793 ], [ 79.96752794, 6.47731973 ], [ 79.96752794, 6.477105319 ], [ 79.9676148, 6.477141298 ], [ 79.967601534, 6.477146793 ] ], [ [ 79.96644699, 6.482082032 ], [ 79.966381102, 6.482214568 ], [ 79.966254061, 6.48226719 ], [ 79.966189625, 6.482422753 ], [ 79.966226186, 6.482600853 ], [ 79.966021776, 6.48293322 ], [ 79.96588924, 6.482999108 ], [ 79.965846536, 6.48289601 ], [ 79.965493936, 6.482822416 ], [ 79.965666873, 6.48275798 ], [ 79.965846536, 6.482578317 ], [ 79.965910973, 6.48224309 ], [ 79.965910973, 6.481883764 ], [ 79.965821141, 6.481632874 ], [ 79.965894264, 6.481474943 ], [ 79.96602667, 6.481474943 ], [ 79.966254061, 6.481949496 ], [ 79.96644699, 6.482082032 ] ], [ [ 79.964882489, 6.486457622 ], [ 79.964832994, 6.486388921 ], [ 79.964882489, 6.48629306 ], [ 79.96496477, 6.48637534 ], [ 79.964882489, 6.486457622 ] ], [ [ 79.965310674, 6.486406991 ], [ 79.96534902, 6.486415678 ], [ 79.965331646, 6.486457622 ], [ 79.965310674, 6.486406991 ] ], [ [ 79.964832994, 6.488994035 ], [ 79.964832994, 6.488800792 ], [ 79.964685452, 6.488571634 ], [ 79.964976899, 6.488571634 ], [ 79.964931983, 6.489029949 ], [ 79.964832994, 6.488994035 ] ], [ [ 79.972853395, 6.436812436 ], [ 79.972627836, 6.436748 ], [ 79.972991996, 6.436530356 ], [ 79.973119193, 6.436488568 ], [ 79.973162467, 6.436833253 ], [ 79.973106652, 6.436968 ], [ 79.973115339, 6.437348298 ], [ 79.973002862, 6.437249086 ], [ 79.972853395, 6.436812436 ] ], [ [ 79.980674233, 6.437634186 ], [ 79.980170779, 6.437473665 ], [ 79.980267309, 6.437277831 ], [ 79.980436924, 6.437277831 ], [ 79.980627106, 6.437393058 ], [ 79.980829337, 6.437484531 ], [ 79.980716937, 6.437531089 ], [ 79.980674233, 6.437634186 ] ], [ [ 79.979865749, 6.437634186 ], [ 79.979866184, 6.437629631 ], [ 79.979867423, 6.437630144 ], [ 79.979865749, 6.437634186 ] ], [ [ 79.970476143, 6.445346432 ], [ 79.970373804, 6.44546646 ], [ 79.970210091, 6.445461658 ], [ 79.970427944, 6.445298232 ], [ 79.970581777, 6.445162324 ], [ 79.97064908, 6.445281995 ], [ 79.970476143, 6.445346432 ] ], [ [ 79.970075344, 6.447168457 ], [ 79.970103584, 6.44710028 ], [ 79.970362212, 6.4471593 ], [ 79.970273944, 6.44729485 ], [ 79.970075344, 6.447168457 ] ], [ [ 79.969937154, 6.447771883 ], [ 79.96986356, 6.448066772 ], [ 79.969716018, 6.44778812 ], [ 79.969989305, 6.447698289 ], [ 79.970162713, 6.447707446 ], [ 79.969937154, 6.447771883 ] ], [ [ 79.97287372, 6.449905304 ], [ 79.972837158, 6.450043066 ], [ 79.972712473, 6.450055606 ], [ 79.972738169, 6.449979991 ], [ 79.972789875, 6.449905951 ], [ 79.97287372, 6.449905304 ] ], [ [ 79.968785582, 6.461060223 ], [ 79.968721145, 6.460887286 ], [ 79.968505189, 6.460818271 ], [ 79.968668994, 6.460768776 ], [ 79.968769344, 6.460839087 ], [ 79.968850553, 6.460953018 ], [ 79.968785582, 6.461060223 ] ], [ [ 79.968401936874457, 6.46421526271592 ], [ 79.968296087, 6.464146616 ], [ 79.96811292, 6.464146616 ], [ 79.968246592, 6.463962374 ], [ 79.968246592, 6.463647964 ], [ 79.968092324, 6.463312737 ], [ 79.967896869, 6.463248301 ], [ 79.967877964, 6.462906854 ], [ 79.968092324, 6.46281538 ], [ 79.968186009, 6.462491668 ], [ 79.968541482, 6.462411139 ], [ 79.96869575, 6.462050832 ], [ 79.968879992, 6.462071333 ], [ 79.969035555, 6.462006897 ], [ 79.969070521, 6.461922482 ], [ 79.969553728, 6.461981502 ], [ 79.969888955, 6.461827234 ], [ 79.96998857, 6.461713783 ], [ 79.970114004, 6.461756923 ], [ 79.970230267, 6.461955481 ], [ 79.970142212, 6.462120828 ], [ 79.970142212, 6.463198806 ], [ 79.970278160992819, 6.463405039151613 ], [ 79.970163446385982, 6.463404806786458 ], [ 79.970162897799526, 6.463676148435526 ], [ 79.969077812690955, 6.463673949593159 ], [ 79.969077263205179, 6.463945290342908 ], [ 79.968534719301871, 6.463944189572715 ], [ 79.968534168916847, 6.464215531221841 ], [ 79.968401936874457, 6.46421526271592 ] ], [ [ 79.967896424, 6.469061484 ], [ 79.967905111, 6.469238491 ], [ 79.967758148, 6.469177617 ], [ 79.967797435, 6.469078192 ], [ 79.967896424, 6.469061484 ] ], [ [ 79.968737506, 6.479072754 ], [ 79.968389046, 6.478829492 ], [ 79.968426255, 6.478673458 ], [ 79.968541482, 6.47862573 ], [ 79.968605918, 6.478470166 ], [ 79.968605918, 6.478276922 ], [ 79.968810976, 6.478176572 ], [ 79.968920329, 6.477576875 ], [ 79.96899064, 6.477547751 ], [ 79.969055076, 6.477374814 ], [ 79.96912867, 6.477637583 ], [ 79.969374065, 6.477791851 ], [ 79.969709292, 6.477727414 ], [ 79.969757413, 6.477611239 ], [ 79.970040251, 6.477751514 ], [ 79.969937154, 6.477820529 ], [ 79.969744335, 6.478256531 ], [ 79.969612225, 6.478384913 ], [ 79.969218502, 6.478494266 ], [ 79.969083754, 6.478629013 ], [ 79.968922696, 6.479006944 ], [ 79.968737506, 6.479072754 ] ], [ [ 79.970565975, 6.481410507 ], [ 79.970681201, 6.481458235 ], [ 79.970701702, 6.481663764 ], [ 79.970598305, 6.481544684 ], [ 79.97049238, 6.481236338 ], [ 79.97049238, 6.481147738 ], [ 79.970565975, 6.481410507 ] ] ], [ [ [ 79.9808966, 6.432814933 ], [ 79.980787248, 6.433195076 ], [ 79.980941516, 6.433440471 ], [ 79.981276743, 6.433504907 ], [ 79.981477222, 6.433395555 ], [ 79.981586574, 6.43315016 ], [ 79.981477222, 6.432859849 ], [ 79.981231827, 6.432750497 ], [ 79.9808966, 6.432814933 ] ] ], [ [ [ 79.971664769, 6.434403223 ], [ 79.971934264, 6.434403223 ], [ 79.972089827, 6.434338786 ], [ 79.972154264, 6.434048475 ], [ 79.972044912, 6.433847996 ], [ 79.971844432, 6.433738644 ], [ 79.971554121, 6.43380308 ], [ 79.971399853, 6.434048475 ], [ 79.97146429, 6.43429387 ], [ 79.971664769, 6.434403223 ] ] ], [ [ [ 79.969374065, 6.436703084 ], [ 79.969218502, 6.436767521 ], [ 79.969064234, 6.43728241 ], [ 79.96912867, 6.437437974 ], [ 79.969374065, 6.437547326 ], [ 79.969553728, 6.437547326 ], [ 79.969799123, 6.437437974 ], [ 79.969908476, 6.437147663 ], [ 79.969754208, 6.436812436 ], [ 79.969374065, 6.436703084 ] ] ], [ [ [ 79.961828217, 6.483900395 ], [ 79.96208612, 6.483805762 ], [ 79.962430804, 6.48391584 ], [ 79.962416701, 6.484039721 ], [ 79.962570969, 6.484285116 ], [ 79.962726532, 6.484349552 ], [ 79.963061759, 6.484285116 ], [ 79.963216027, 6.483949889 ], [ 79.963179465, 6.48377179 ], [ 79.963305858, 6.483590563 ], [ 79.963305858, 6.483231237 ], [ 79.96315159, 6.48289601 ], [ 79.962929824, 6.482831574 ], [ 79.962882096, 6.482716347 ], [ 79.962677038, 6.482615997 ], [ 79.962882096, 6.482488485 ], [ 79.962946532, 6.482332922 ], [ 79.962882096, 6.482087527 ], [ 79.962792264, 6.481997695 ], [ 79.962457038, 6.481933259 ], [ 79.962031979, 6.482087527 ], [ 79.961942148, 6.482177358 ], [ 79.96178788, 6.482602416 ], [ 79.961877711, 6.482943138 ], [ 79.961846386, 6.483018763 ], [ 79.961582822, 6.483075674 ], [ 79.961428554, 6.483500732 ], [ 79.96149299, 6.483746127 ], [ 79.961828217, 6.483900395 ] ] ] ] } }
]
}
